$$SOE
2461295.500000000, A.D. 2026-Sep-12 00:00:00.0000, 3.550023619561818E+08, 4.454629985917646E+07, 2.531880325576851E+07,
2461302.500000000, A.D. 2026-Sep-19 00:00:00.0000, 3.546256448379915E+08, 5.646278200801055E+07, 2.614480939689461E+07,
2461309.500000000, A.D. 2026-Sep-26 00:00:00.0000, 3.538801102464465E+08, 6.832053884433916E+07, 2.694362410667327E+07,
2461316.500000000, A.D. 2026-Oct-03 00:00:00.0000, 3.527707226537584E+08, 8.010804481730077E+07, 2.771473563857222E+07,
2461323.500000000, A.D. 2026-Oct-10 00:00:00.0000, 3.513027775083429E+08, 9.181412153303094E+07, 2.845767760680306E+07,
2461330.500000000, A.D. 2026-Oct-17 00:00:00.0000, 3.494818779418016E+08, 1.034279430125959E+08, 2.917202791676804E+07,
2461337.500000000, A.D. 2026-Oct-24 00:00:00.0000, 3.473139120082739E+08, 1.149390394086722E+08, 2.985740761712985E+07,
2461344.500000000, A.D. 2026-Oct-31 00:00:00.0000, 3.448050306200886E+08, 1.263372992161122E+08, 3.051347966927202E+07,
2461351.500000000, A.D. 2026-Nov-07 00:00:00.0000, 3.419616265792832E+08, 1.376129701544729E+08, 3.113994762039412E+07,
2461358.500000000, A.D. 2026-Nov-14 00:00:00.0000, 3.387903149590378E+08, 1.487566597101630E+08, 3.173655424573600E+07,
2461365.500000000, A.D. 2026-Nov-21 00:00:00.0000, 3.352979130658901E+08, 1.597593361181976E+08, 3.230308039306579E+07,
2461372.500000000, A.D. 2026-Nov-28 00:00:00.0000, 3.314914190244843E+08, 1.706123268716631E+08, 3.283934388679134E+07,
2461379.500000000, A.D. 2026-Dec-05 00:00:00.0000, 3.273779926342305E+08, 1.813073141881625E+08, 3.334519811489061E+07,
2461386.500000000, A.D. 2026-Dec-12 00:00:00.0000, 3.229649386740903E+08, 1.918363306257949E+08, 3.382053054381225E+07,
2461393.500000000, A.D. 2026-Dec-19 00:00:00.0000, 3.182596907717313E+08, 2.021917549377211E+08, 3.426526134085432E+07,
2461400.500000000, A.D. 2026-Dec-26 00:00:00.0000, 3.132697956944324E+08, 2.123663073774335E+08, 3.467934205183282E+07,
2461407.500000000, A.D. 2027-Jan-02 00:00:00.0000, 3.080028983324840E+08, 2.223530443398308E+08, 3.506275429824121E+07,
2461414.500000000, A.D. 2027-Jan-09 00:00:00.0000, 3.024667274820792E+08, 2.321453524299759E+08, 3.541550848934788E+07,
2461421.500000000, A.D. 2027-Jan-16 00:00:00.0000, 2.966690824487311E+08, 2.417369420357300E+08, 3.573764255069698E+07,
2461428.500000000, A.D. 2027-Jan-23 00:00:00.0000, 2.906178204992228E+08, 2.511218404278000E+08, 3.602922066505304E+07,
2461435.500000000, A.D. 2027-Jan-30 00:00:00.0000, 2.843208453292103E+08, 2.602943843986295E+08, 3.629033200775546E+07,
2461442.500000000, A.D. 2027-Feb-06 00:00:00.0000, 2.777860969492512E+08, 2.692492128348005E+08, 3.652108946788488E+07,
2461449.500000000, A.D. 2027-Feb-13 00:00:00.0000, 2.710215425039391E+08, 2.779812604899942E+08, 3.672162849850343E+07,
2461456.500000000, A.D. 2027-Feb-20 00:00:00.0000, 2.640351656287954E+08, 2.864857522111607E+08, 3.689210624898374E+07,
2461463.500000000, A.D. 2027-Feb-27 00:00:00.0000, 2.568349557129105E+08, 2.947581944511573E+08, 3.703270059104019E+07,
2461470.500000000, A.D. 2027-Mar-06 00:00:00.0000, 2.494289000623022E+08, 3.027943660301615E+08, 3.714360892004298E+07,
2461477.500000000, A.D. 2027-Mar-13 00:00:00.0000, 2.418249773347994E+08, 3.105903102269444E+08, 3.722504704567870E+07,
2461484.500000000, A.D. 2027-Mar-20 00:00:00.0000, 2.340311510864962E+08, 3.181423273958778E+08, 3.727724820740917E+07,
2461491.500000000, A.D. 2027-Mar-27 00:00:00.0000, 2.260553636026956E+08, 3.254469675891728E+08, 3.730046215151432E+07,
2461498.500000000, A.D. 2027-Apr-03 00:00:00.0000, 2.179055301877280E+08, 3.325010231618755E+08, 3.729495424717173E+07,
2461505.500000000, A.D. 2027-Apr-10 00:00:00.0000, 2.095895339465834E+08, 3.393015214049142E+08, 3.726100463760827E+07,
2461512.500000000, A.D. 2027-Apr-17 00:00:00.0000, 2.011152210524082E+08, 3.458457172114323E+08, 3.719890742274703E+07,
2461519.500000000, A.D. 2027-Apr-24 00:00:00.0000, 1.924903965514672E+08, 3.521310857314731E+08, 3.710896986053212E+07,
2461526.500000000, A.D. 2027-May-01 00:00:00.0000, 1.837228209783224E+08, 3.581553150584079E+08, 3.699151156125219E+07,
2461533.500000000, A.D. 2027-May-08 00:00:00.0000, 1.748202080635830E+08, 3.639162997095693E+08, 3.684686370730934E+07,
2461540.500000000, A.D. 2027-May-15 00:00:00.0000, 1.657902220135574E+08, 3.694121358638325E+08, 3.667536851247168E+07,
2461547.500000000, A.D. 2027-May-22 00:00:00.0000, 1.566404727704192E+08, 3.746411157700275E+08, 3.647737885091861E+07,
2461554.500000000, A.D. 2027-May-29 00:00:00.0000, 1.473785125829897E+08, 3.796017198694798E+08, 3.625325762833242E+07,
2461561.500000000, A.D. 2027-Jun-05 00:00:00.0000, 1.380118347538221E+08, 3.842926097741916E+08, 3.600337706939003E+07,
2461568.500000000, A.D. 2027-Jun-12 00:00:00.0000, 1.285478725345134E+08, 3.887126225359021E+08, 3.572811813984233E+07,
2461575.500000000, A.D. 2027-Jun-19 00:00:00.0000, 1.189939978172538E+08, 3.928607652741356E+08, 3.542787005618492E+07,
2461582.500000000, A.D. 2027-Jun-26 00:00:00.0000, 1.093575198830539E+08, 3.967362099044644E+08, 3.510302983501539E+07,
2461589.500000000, A.D. 2027-Jul-03 00:00:00.0000, 9.964568432109979E+07, 4.003382879755474E+08, 3.475400186942571E+07,
2461596.500000000, A.D. 2027-Jul-10 00:00:00.0000, 8.986567213834895E+07, 4.036664856215096E+08, 3.438119752829310E+07,
2461603.500000000, A.D. 2027-Jul-17 00:00:00.0000, 8.002459907696944E+07, 4.067204385876375E+08, 3.398503477058178E+07,
2461610.500000000, A.D. 2027-Jul-24 00:00:00.0000, 7.012951527663465E+07, 4.094999272647857E+08, 3.356593775433517E+07,
2461617.500000000, A.D. 2027-Jul-31 00:00:00.0000, 6.018740567484879E+07, 4.120048719692560E+08, 3.312433642171869E+07,
2461624.500000000, A.D. 2027-Aug-07 00:00:00.0000, 5.020519093002035E+07, 4.142353296235132E+08, 3.266066617272297E+07,
2461631.500000000, A.D. 2027-Aug-14 00:00:00.0000, 4.018972655584506E+07, 4.161914915846879E+08, 3.217536781721440E+07,
2461638.500000000, A.D. 2027-Aug-21 00:00:00.0000, 3.014780087284353E+07, 4.178736792512523E+08, 3.166888747255245E+07,
2461645.500000000, A.D. 2027-Aug-28 00:00:00.0000, 2.008613519434386E+07, 4.192823386504337E+08, 3.114167618981034E+07,
2461652.500000000, A.D. 2027-Sep-04 00:00:00.0000, 1.001138505649740E+07, 4.204180365082968E+08, 3.059418962026694E+07,
2461659.500000000, A.D. 2027-Sep-11 00:00:00.0000, -6.985891265831918E+04, 4.212814571359661E+08, 3.002688779451704E+07,
2461666.500000000, A.D. 2027-Sep-18 00:00:00.0000, -1.015107036285361E+07, 4.218733994768388E+08, 2.944023494752598E+07,
2461673.500000000, A.D. 2027-Sep-25 00:00:00.0000, -2.022578661148917E+07, 4.221947742334335E+08, 2.883469936114001E+07,
2461680.500000000, A.D. 2027-Oct-02 00:00:00.0000, -3.028760798828946E+07, 4.222466010981418E+08, 2.821075321833420E+07,
2461687.500000000, A.D. 2027-Oct-09 00:00:00.0000, -4.033019712109438E+07, 4.220300060801476E+08, 2.756887246572530E+07,
2461694.500000000, A.D. 2027-Oct-16 00:00:00.0000, -5.034727810790408E+07, 4.215462188703539E+08, 2.690953667309314E+07,
2461701.500000000, A.D. 2027-Oct-23 00:00:00.0000, -6.033263532324110E+07, 4.207965702352884E+08, 2.623322886471269E+07,
2461708.500000000, A.D. 2027-Oct-30 00:00:00.0000, -7.028011149201247E+07, 4.197824900475274E+08, 2.554043533723846E+07,
2461715.500000000, A.D. 2027-Nov-06 00:00:00.0000, -8.018360620137034E+07, 4.185055070794423E+08, 2.483164566231385E+07,
2461722.500000000, A.D. 2027-Nov-13 00:00:00.0000, -9.003707684045459E+07, 4.169672484807028E+08, 2.410735288537610E+07,
2461729.500000000, A.D. 2027-Nov-20 00:00:00.0000, -9.983453907247704E+07, 4.151694367461311E+08, 2.336805347516102E+07,
2461736.500000000, A.D. 2027-Nov-27 00:00:00.0000, -1.095700652307673E+08, 4.131138871363130E+08, 2.261424711757746E+07,
2461743.500000000, A.D. 2027-Dec-04 00:00:00.0000, -1.192377826677884E+08, 4.108025064651129E+08, 2.184643661370504E+07,
2461750.500000000, A.D. 2027-Dec-11 00:00:00.0000, -1.288318726119755E+08, 4.082372922868787E+08, 2.106512785300255E+07,
2461757.500000000, A.D. 2027-Dec-18 00:00:00.0000, -1.383465692625498E+08, 4.054203321406088E+08, 2.027082980831477E+07,
2461764.500000000, A.D. 2027-Dec-25 00:00:00.0000, -1.477761589753411E+08, 4.023538028459896E+08, 1.946405453812325E+07,
2461771.500000000, A.D. 2028-Jan-01 00:00:00.0000, -1.571149795027153E+08, 3.990399698630792E+08, 1.864531719298878E+07,
$$EOE